{
    "links": {
        "self": "http://www.neowsapp.com/rest/v1/neo/3389196?api_key=iIulBulltgU6a56xZRHN4H3l9WmuAYTsLGpBGhQ2"
    },
    "id": "3389196",
    "neo_reference_id": "3389196",
    "name": "(2007 UX1)",
    "designation": "2007 UX1",
    "nasa_jpl_url": "http://ssd.jpl.nasa.gov/sbdb.cgi?sstr=3389196",
    "absolute_magnitude_h": 20.4,
    "estimated_diameter": {
        "kilometers": {
            "estimated_diameter_min": 0.2210828104,
            "estimated_diameter_max": 0.4943561926
        },
        "meters": {
            "estimated_diameter_min": 221.0828103591,
            "estimated_diameter_max": 494.3561926196
        },
        "miles": {
            "estimated_diameter_min": 0.137374447,
            "estimated_diameter_max": 0.3071786018
        },
        "feet": {
            "estimated_diameter_min": 725.3373275385,
            "estimated_diameter_max": 1621.9035709942
        }
    },
    "is_potentially_hazardous_asteroid": false,
    "close_approach_data": [
        {
            "close_approach_date": "1984-11-01",
            "close_approach_date_full": "1984-Nov-01 12:54",
            "epoch_date_close_approach": 468161640000,
            "relative_velocity": {
                "kilometers_per_second": "5.3005796557",
                "kilometers_per_hour": "19082.0867604525",
                "miles_per_hour": "11856.8666317934"
            },
            "miss_distance": {
                "astronomical": "0.2980201222",
                "lunar": "115.9298275358",
                "kilometers": "44583175.498259714",
                "miles": "27702700.6633194932"
            },
            "orbiting_body": "Earth"
        },
        {
            "close_approach_date": "2005-11-10",
            "close_approach_date_full": "2005-Nov-10 03:29",
            "epoch_date_close_approach": 1131593340000,
            "relative_velocity": {
                "kilometers_per_second": "1.9388817929",
                "kilometers_per_hour": "6979.9744544355",
                "miles_per_hour": "4337.0846825352"
            },
            "miss_distance": {
                "astronomical": "1.8928674686",
                "lunar": "736.3254452854",
                "kilometers": "283168941.494851882",
                "miles": "175953021.1948926916"
            },
            "orbiting_body": "Juptr"
        },
        {
            "close_approach_date": "2007-11-11",
            "close_approach_date_full": "2007-Nov-11 01:05",
            "epoch_date_close_approach": 1194743100000,
            "relative_velocity": {
                "kilometers_per_second": "5.1385107938",
                "kilometers_per_hour": "18498.6388576466",
                "miles_per_hour": "11494.3347946305"
            },
            "miss_distance": {
                "astronomical": "0.3226528489",
                "lunar": "125.5119582221",
                "kilometers": "48268178.944871843",
                "miles": "29992455.6276957134"
            },
            "orbiting_body": "Earth"
        }
    ],
    "orbital_data": {
        "orbit_id": "23",
        "orbit_determination_date": "2017-04-06 09:05:35",
        "first_observation_date": "2007-10-17",
        "last_observation_date": "2007-12-25",
        "data_arc_in_days": 69,
        "observations_used": 104,
        "orbit_uncertainty": "5",
        "minimum_orbit_intersection": ".283194",
        "jupiter_tisserand_invariant": "3.311",
        "epoch_osculation": "2459000.5",
        "eccentricity": ".4864155857201747",
        "semi_major_axis": "2.440463280588198",
        "inclination": "9.875113471185802",
        "ascending_node_longitude": "74.10172677905699",
        "orbital_period": "1392.537320618087",
        "perihelion_distance": "1.253383904532311",
        "perihelion_argument": "322.2382694156727",
        "aphelion_distance": "3.627542656644086",
        "perihelion_time": "2458582.552132159101",
        "mean_anomaly": "108.0482585241884",
        "mean_motion": ".2585208989876204",
        "equinox": "J2000",
        "orbit_class": {
            "orbit_class_type": "AMO",
            "orbit_class_description": "Near-Earth asteroid orbits similar to that of 1221 Amor",
            "orbit_class_range": "1.017 AU < q (perihelion) < 1.3 AU"
        }
    },
    "is_sentry_object": false
}